{"type": "FeatureCollection", "features": [ {"type": "Feature", "properties": {"norad_id": 31735, "name": "FENGYUN 1C DEB", "group": "fengyun-1c-debris", "lat": -21.759199275560192, "lon": 106.81456189231966, "alt_km": 757.9546079141219, "timestamp": "2025-12-25T22:42:17.295315+00:00", "meta": {"OBJECT_NAME": "FENGYUN 1C DEB", "OBJECT_ID": "1999-025CEJ", "EPOCH": "2025-12-25T17:48:46.741824", "MEAN_MOTION": 14.42579033, "ECCENTRICITY": 0.005907, "INCLINATION": 98.58, "RA_OF_ASC_NODE": 103.1547, "ARG_OF_PERICENTER": 244.7383, "MEAN_ANOMALY": 114.7677, "EPHEMERIS_TYPE": 0, "CLASSIFICATION_TYPE": "U", "NORAD_CAT_ID": 31735, "ELEMENT_SET_NO": 999, "REV_AT_EPOCH": 96852, "BSTAR": 0.00044994, "MEAN_MOTION_DOT": 1.479e-05, "MEAN_MOTION_DDOT": 0}, "tle": {"line1": "1 31735U 99025CEJ 25359.74220766  .00001479  00000+0  44994-3 0  9995", "line2": "2 31735  98.5800 103.1547 0059070 244.7383 114.7677 14.42579033968525"}}, "geometry": {"type": "Point", "coordinates": [106.81456189231966, -21.759199275560192]}}, {"type": "Feature", "properties": {"norad_id": 31736, "name": "FENGYUN 1C DEB", "group": "fengyun-1c-debris", "lat": 80.65070403842304, "lon": -66.593635277308, "alt_km": 841.0396939049642, "timestamp": "2025-12-25T22:42:17.295326+00:00", "meta": {"OBJECT_NAME": "FENGYUN 1C DEB", "OBJECT_ID": "1999-025CEK", "EPOCH": "2025-12-23T17:39:26.129376", "MEAN_MOTION": 14.14190163, "ECCENTRICITY": 0.0011448, "INCLINATION": 98.6782, "RA_OF_ASC_NODE": 359.3318, "ARG_OF_PERICENTER": 207.2701, "MEAN_ANOMALY": 152.7873, "EPHEMERIS_TYPE": 0, "CLASSIFICATION_TYPE": "U", "NORAD_CAT_ID": 31736, "ELEMENT_SET_NO": 999, "REV_AT_EPOCH": 64220, "BSTAR": 0.00013853651, "MEAN_MOTION_DOT": 2.21e-06, "MEAN_MOTION_DDOT": 0}, "tle": {"line1": "1 31736U 99025CEK 25357.73571909  .00000221  00000+0  13854-3 0  9996", "line2": "2 31736  98.6782 359.3318 0011448 207.2701 152.7873 14.14190163642208"}}, "geometry": {"type": "Point", "coordinates": [-66.593635277308, 80.65070403842304]}}, {"type": "Feature", "properties": {"norad_id": 31737, "name": "FENGYUN 1C DEB", "group": "fengyun-1c-debris", "lat": 77.53353199171113, "lon": -5.953417422782863, "alt_km": 686.15439115766, "timestamp": "2025-12-25T22:42:17.295336+00:00", "meta": {"OBJECT_NAME": "FENGYUN 1C DEB", "OBJECT_ID": "1999-025CEL", "EPOCH": "2025-12-25T01:13:30.364896", "MEAN_MOTION": 14.68833647, "ECCENTRICITY": 0.01477082, "INCLINATION": 97.9159, "RA_OF_ASC_NODE": 32.1817, "ARG_OF_PERICENTER": 336.4105, "MEAN_ANOMALY": 52.6491, "EPHEMERIS_TYPE": 0, "CLASSIFICATION_TYPE": "U", "NORAD_CAT_ID": 31737, "ELEMENT_SET_NO": 999, "REV_AT_EPOCH": 98380, "BSTAR": 0.00062320102, "MEAN_MOTION_DOT": 4.244e-05, "MEAN_MOTION_DDOT": 0}, "tle": {"line1": "1 31737U 99025CEL 25359.05104589  .00004244  00000+0  62320-3 0  9991", "line2": "2 31737  97.9159  32.1817 0147708 336.4105  52.6491 14.68833647983809"}}, "geometry": {"type": "Point", "coordinates": [-5.953417422782863, 77.53353199171113]}}, {"type": "Feature", "properties": {"norad_id": 31738, "name": "FENGYUN 1C DEB", "group": "fengyun-1c-debris", "lat": 76.53919263021267, "lon": -69.259786150049, "alt_km": 751.7686385248426, "timestamp": "2025-12-25T22:42:17.295346+00:00", "meta": {"OBJECT_NAME": "FENGYUN 1C DEB", "OBJECT_ID": "1999-025CEM", "EPOCH": "2025-12-23T21:42:29.765088", "MEAN_MOTION": 13.85097966, "ECCENTRICITY": 0.0306503, "INCLINATION": 99.3607, "RA_OF_ASC_NODE": 65.1392, "ARG_OF_PERICENTER": 70.4545, "MEAN_ANOMALY": 292.9435, "EPHEMERIS_TYPE": 0, "CLASSIFICATION_TYPE": "U", "NORAD_CAT_ID": 31738, "ELEMENT_SET_NO": 999, "REV_AT_EPOCH": 62412, "BSTAR": 0.0013333, "MEAN_MOTION_DOT": 2.136e-05, "MEAN_MOTION_DDOT": 0}, "tle": {"line1": "1 31738U 99025CEM 25357.90451117  .00002136  00000+0  13333-2 0  9993", "line2": "2 31738  99.3607  65.1392 0306503  70.4545 292.9435 13.85097966624129"}}, "geometry": {"type": "Point", "coordinates": [-69.259786150049, 76.53919263021267]}}, {"type": "Feature", "properties": {"norad_id": 31739, "name": "FENGYUN 1C DEB", "group": "fengyun-1c-debris", "lat": -17.0244540680367, "lon": -127.59163004481901, "alt_km": 917.4275294750432, "timestamp": "2025-12-25T22:42:17.295356+00:00", "meta": {"OBJECT_NAME": "FENGYUN 1C DEB", "OBJECT_ID": "1999-025CEN", "EPOCH": "2025-12-22T21:01:48.237600", "MEAN_MOTION": 14.19222249, "ECCENTRICITY": 0.012814, "INCLINATION": 98.7461, "RA_OF_ASC_NODE": 52.0797, "ARG_OF_PERICENTER": 49.2852, "MEAN_ANOMALY": 311.9371, "EPHEMERIS_TYPE": 0, "CLASSIFICATION_TYPE": "U", "NORAD_CAT_ID": 31739, "ELEMENT_SET_NO": 999, "REV_AT_EPOCH": 95630, "BSTAR": 9.2432e-05, "MEAN_MOTION_DOT": 1.67e-06, "MEAN_MOTION_DDOT": 0}, "tle": {"line1": "1 31739U 99025CEN 25356.87625275  .00000167  00000+0  92432-4 0  9998", "line2": "2 31739  98.7461  52.0797 0128140  49.2852 311.9371 14.19222249956300"}}, "geometry": {"type": "Point", "coordinates": [-127.59163004481901, -17.0244540680367]}}, {"type": "Feature", "properties": {"norad_id": 31740, "name": "FENGYUN 1C DEB", "group": "fengyun-1c-debris", "lat": 15.061031522863518, "lon": -4.062665662301563, "alt_km": 763.8925641682044, "timestamp": "2025-12-25T22:42:17.295366+00:00", "meta": {"OBJECT_NAME": "FENGYUN 1C DEB", "OBJECT_ID": "1999-025CEP", "EPOCH": "2025-12-24T23:19:56.739072", "MEAN_MOTION": 14.42257386, "ECCENTRICITY": 0.00243017, "INCLINATION": 99.8206, "RA_OF_ASC_NODE": 172.1465, "ARG_OF_PERICENTER": 32.9385, "MEAN_ANOMALY": 117.9061, "EPHEMERIS_TYPE": 0, "CLASSIFICATION_TYPE": "U", "NORAD_CAT_ID": 31740, "ELEMENT_SET_NO": 999, "REV_AT_EPOCH": 65251, "BSTAR": 0.0013330711, "MEAN_MOTION_DOT": 4.359e-05, "MEAN_MOTION_DDOT": 0}, "tle": {"line1": "1 31740U 99025CEP 25358.97218448  .00004359  00000+0  13331-2 0  9999", "line2": "2 31740  99.8206 172.1465 0024301  32.9385 117.9061 14.42257386652513"}}, "geometry": {"type": "Point", "coordinates": [-4.062665662301563, 15.061031522863518]}}, {"type": "Feature", "properties": {"norad_id": 31742, "name": "FENGYUN 1C DEB", "group": "fengyun-1c-debris", "lat": 27.953857549385503, "lon": 45.079076306236914, "alt_km": 798.3477317869338, "timestamp": "2025-12-25T22:42:17.295377+00:00", "meta": {"OBJECT_NAME": "FENGYUN 1C DEB", "OBJECT_ID": "1999-025CER", "EPOCH": "2025-12-25T01:58:59.652768", "MEAN_MOTION": 14.39845332, "ECCENTRICITY": 0.00759259, "INCLINATION": 98.9186, "RA_OF_ASC_NODE": 219.4004, "ARG_OF_PERICENTER": 292.9263, "MEAN_ANOMALY": 66.3923, "EPHEMERIS_TYPE": 0, "CLASSIFICATION_TYPE": "U", "NORAD_CAT_ID": 31742, "ELEMENT_SET_NO": 999, "REV_AT_EPOCH": 96827, "BSTAR": 0.00070014555, "MEAN_MOTION_DOT": 2.225e-05, "MEAN_MOTION_DDOT": 0}, "tle": {"line1": "1 31742U 99025CER 25359.08263487  .00002225  00000+0  70015-3 0  9990", "line2": "2 31742  98.9186 219.4004 0075925 292.9263  66.3923 14.39845332968274"}}, "geometry": {"type": "Point", "coordinates": [45.079076306236914, 27.953857549385503]}}, {"type": "Feature", "properties": {"norad_id": 31743, "name": "FENGYUN 1C DEB", "group": "fengyun-1c-debris", "lat": -12.419244661594776, "lon": 106.52016901338801, "alt_km": 765.372549798215, "timestamp": "2025-12-25T22:42:17.295387+00:00", "meta": {"OBJECT_NAME": "FENGYUN 1C DEB", "OBJECT_ID": "1999-025CES", "EPOCH": "2025-12-23T06:46:15.160224", "MEAN_MOTION": 14.31363551, "ECCENTRICITY": 0.00374009, "INCLINATION": 99.1437, "RA_OF_ASC_NODE": 285.7501, "ARG_OF_PERICENTER": 187.23, "MEAN_ANOMALY": 325.8587, "EPHEMERIS_TYPE": 0, "CLASSIFICATION_TYPE": "U", "NORAD_CAT_ID": 31743, "ELEMENT_SET_NO": 999, "REV_AT_EPOCH": 95791, "BSTAR": 0.0013325864, "MEAN_MOTION_DOT": 3.511e-05, "MEAN_MOTION_DDOT": 0}, "tle": {"line1": "1 31743U 99025CES 25357.28211991  .00003511  00000+0  13326-2 0  9994", "line2": "2 31743  99.1437 285.7501 0037400 187.2300 325.8587 14.31363551957917"}}, "geometry": {"type": "Point", "coordinates": [106.52016901338801, -12.419244661594776]}}, {"type": "Feature", "properties": {"norad_id": 31744, "name": "FENGYUN 1C DEB", "group": "fengyun-1c-debris", "lat": 11.034224764810702, "lon": -66.63009472234518, "alt_km": 1052.8614487229752, "timestamp": "2025-12-25T22:42:17.295397+00:00", "meta": {"OBJECT_NAME": "FENGYUN 1C DEB", "OBJECT_ID": "1999-025CET", "EPOCH": "2025-12-17T13:54:12.794400", "MEAN_MOTION": 14.16604274, "ECCENTRICITY": 0.03151073, "INCLINATION": 99.3037, "RA_OF_ASC_NODE": 102.7793, "ARG_OF_PERICENTER": 30.7507, "MEAN_ANOMALY": 331.1716, "EPHEMERIS_TYPE": 0, "CLASSIFICATION_TYPE": "U", "NORAD_CAT_ID": 31744, "ELEMENT_SET_NO": 999, "REV_AT_EPOCH": 94683, "BSTAR": 0.00098574439, "MEAN_MOTION_DOT": 3.146e-05, "MEAN_MOTION_DDOT": 0}, "tle": {"line1": "1 31744U 99025CET 25351.57931475  .00003146  00000+0  98574-3 0  9990", "line2": "2 31744  99.3037 102.7793 0315107  30.7507 331.1716 14.16604274946837"}}, "geometry": {"type": "Point", "coordinates": [-66.63009472234518, 11.034224764810702]}}, {"type": "Feature", "properties": {"norad_id": 31746, "name": "FENGYUN 1C DEB", "group": "fengyun-1c-debris", "lat": -48.654239459616896, "lon": -66.51965454953144, "alt_km": 636.7271926332023, "timestamp": "2025-12-25T22:42:17.295407+00:00", "meta": {"OBJECT_NAME": "FENGYUN 1C DEB", "OBJECT_ID": "1999-025CEV", "EPOCH": "2025-12-22T07:30:54.832032", "MEAN_MOTION": 14.77180298, "ECCENTRICITY": 0.00226914, "INCLINATION": 98.5896, "RA_OF_ASC_NODE": 119.5049, "ARG_OF_PERICENTER": 179.7871, "MEAN_ANOMALY": 180.3351, "EPHEMERIS_TYPE": 0, "CLASSIFICATION_TYPE": "U", "NORAD_CAT_ID": 31746, "ELEMENT_SET_NO": 999, "REV_AT_EPOCH": 97169, "BSTAR": 0.0037623733, "MEAN_MOTION_DOT": 0.00026782, "MEAN_MOTION_DDOT": 0}, "tle": {"line1": "1 31746U 99025CEV 25356.31313463  .00026782  00000+0  37624-2 0  9999", "line2": "2 31746  98.5896 119.5049 0022691 179.7871 180.3351 14.77180298971697"}}, "geometry": {"type": "Point", "coordinates": [-66.51965454953144, -48.654239459616896]}}]}